{
  "type": "FeatureCollection",
  "features": [
    {
      "type": "Feature",
      "properties": {
        "norad_id": 66532,
        "name": "STARLINK-35914",
        "group": "last-30-days",
        "lat": 15.680257941631348,
        "lon": -153.73538252159983,
        "alt_km": 414.7879888184834,
        "timestamp": "2025-12-14T11:29:48.797509+00:00",
        "meta_object_name": "STARLINK-35914",
        "meta_object_id": "2025-265S",
        "meta_epoch": "2025-12-13T11:36:04.004352",
        "meta_mean_motion": 15.48272107,
        "meta_eccentricity": 0.0006979,
        "meta_inclination": 43.0001,
        "meta_ra_of_asc_node": 49.6024,
        "meta_arg_of_pericenter": 123.512,
        "meta_mean_anomaly": 236.6407,
        "meta_ephemeris_type": 0,
        "meta_classification_type": "U",
        "meta_norad_cat_id": 66532,
        "meta_element_set_no": 999,
        "meta_rev_at_epoch": 387,
        "meta_bstar": 0.00086174566,
        "meta_mean_motion_dot": 0.00046584,
        "meta_mean_motion_ddot": 0,
        "tle_line1": "1 66532U 25265S   25347.48337968  .00046584  00000+0  86175-3 0  9997",
        "tle_line2": "2 66532  43.0001  49.6024 0006979 123.5120 236.6407 15.48272107  3875"
      },
      "geometry": {
        "type": "Point",
        "coordinates": [
          -153.73538252159983,
          15.680257941631348
        ]
      }
    },
    {
      "type": "Feature",
      "properties": {
        "norad_id": 66533,
        "name": "STARLINK-35707",
        "group": "last-30-days",
        "lat": 6.470005238879237,
        "lon": -143.2268376573912,
        "alt_km": 413.66871613399326,
        "timestamp": "2025-12-14T11:29:48.797519+00:00",
        "meta_object_name": "STARLINK-35707",
        "meta_object_id": "2025-265T",
        "meta_epoch": "2025-12-13T11:34:41.093184",
        "meta_mean_motion": 15.50607981,
        "meta_eccentricity": 0.00022564,
        "meta_inclination": 43.0006,
        "meta_ra_of_asc_node": 49.5952,
        "meta_arg_of_pericenter": 272.0384,
        "meta_mean_anomaly": 88.0218,
        "meta_ephemeris_type": 0,
        "meta_classification_type": "U",
        "meta_norad_cat_id": 66533,
        "meta_element_set_no": 999,
        "meta_rev_at_epoch": 387,
        "meta_bstar": 0.0018709775,
        "meta_mean_motion_dot": 0.00111109,
        "meta_mean_motion_ddot": 0,
        "tle_line1": "1 66533U 25265T   25347.48242006  .00111109  00000+0  18710-2 0  9991",
        "tle_line2": "2 66533  43.0006  49.5952 0002256 272.0384  88.0218 15.50607981  3870"
      },
      "geometry": {
        "type": "Point",
        "coordinates": [
          -143.2268376573912,
          6.470005238879237
        ]
      }
    },
    {
      "type": "Feature",
      "properties": {
        "norad_id": 66534,
        "name": "STARLINK-35976",
        "group": "last-30-days",
        "lat": 5.538345991700411,
        "lon": -142.2121200031855,
        "alt_km": 413.9555861893723,
        "timestamp": "2025-12-14T11:29:48.797529+00:00",
        "meta_object_name": "STARLINK-35976",
        "meta_object_id": "2025-265U",
        "meta_epoch": "2025-12-13T13:06:58.108032",
        "meta_mean_motion": 15.50504664,
        "meta_eccentricity": 0.00019885,
        "meta_inclination": 43.0008,
        "meta_ra_of_asc_node": 49.2164,
        "meta_arg_of_pericenter": 262.8387,
        "meta_mean_anomaly": 97.2247,
        "meta_ephemeris_type": 0,
        "meta_classification_type": "U",
        "meta_norad_cat_id": 66534,
        "meta_element_set_no": 999,
        "meta_rev_at_epoch": 388,
        "meta_bstar": 0.001524729,
        "meta_mean_motion_dot": 0.00089904,
        "meta_mean_motion_ddot": 0,
        "tle_line1": "1 66534U 25265U   25347.54650588  .00089904  00000+0  15247-2 0  9996",
        "tle_line2": "2 66534  43.0008  49.2164 0001988 262.8387  97.2247 15.50504664  3885"
      },
      "geometry": {
        "type": "Point",
        "coordinates": [
          -142.2121200031855,
          5.538345991700411
        ]
      }
    },
    {
      "type": "Feature",
      "properties": {
        "norad_id": 66535,
        "name": "STARLINK-35514",
        "group": "last-30-days",
        "lat": 3.886960634614595,
        "lon": -140.42680649104892,
        "alt_km": 413.7327919401487,
        "timestamp": "2025-12-14T11:29:48.797541+00:00",
        "meta_object_name": "STARLINK-35514",
        "meta_object_id": "2025-265V",
        "meta_epoch": "2025-12-13T11:33:42.005088",
        "meta_mean_motion": 15.50597247,
        "meta_eccentricity": 0.00017387,
        "meta_inclination": 43.001,
        "meta_ra_of_asc_node": 49.5903,
        "meta_arg_of_pericenter": 265.5641,
        "meta_mean_anomaly": 94.502,
        "meta_ephemeris_type": 0,
        "meta_classification_type": "U",
        "meta_norad_cat_id": 66535,
        "meta_element_set_no": 999,
        "meta_rev_at_epoch": 387,
        "meta_bstar": 0.001926222,
        "meta_mean_motion_dot": 0.00114401,
        "meta_mean_motion_ddot": 0,
        "tle_line1": "1 66535U 25265V   25347.48173617  .00114401  00000+0  19262-2 0  9995",
        "tle_line2": "2 66535  43.0010  49.5903 0001738 265.5641  94.5020 15.50597247  3876"
      },
      "geometry": {
        "type": "Point",
        "coordinates": [
          -140.42680649104892,
          3.886960634614595
        ]
      }
    },
    {
      "type": "Feature",
      "properties": {
        "norad_id": 66536,
        "name": "STARLINK-35640",
        "group": "last-30-days",
        "lat": 2.4718925145280513,
        "lon": -138.90659979453662,
        "alt_km": 413.62387239143663,
        "timestamp": "2025-12-14T11:29:48.797551+00:00",
        "meta_object_name": "STARLINK-35640",
        "meta_object_id": "2025-265W",
        "meta_epoch": "2025-12-13T11:33:12.984192",
        "meta_mean_motion": 15.50643538,
        "meta_eccentricity": 0.00012826,
        "meta_inclination": 43.0005,
        "meta_ra_of_asc_node": 49.587,
        "meta_arg_of_pericenter": 261.8207,
        "meta_mean_anomaly": 98.2508,
        "meta_ephemeris_type": 0,
        "meta_classification_type": "U",
        "meta_norad_cat_id": 66536,
        "meta_element_set_no": 999,
        "meta_rev_at_epoch": 387,
        "meta_bstar": 0.0020363353,
        "meta_mean_motion_dot": 0.00121266,
        "meta_mean_motion_ddot": 0,
        "tle_line1": "1 66536U 25265W   25347.48140028  .00121266  00000+0  20363-2 0  9997",
        "tle_line2": "2 66536  43.0005  49.5870 0001282 261.8207  98.2508 15.50643538  3872"
      },
      "geometry": {
        "type": "Point",
        "coordinates": [
          -138.90659979453662,
          2.4718925145280513
        ]
      }
    },
    {
      "type": "Feature",
      "properties": {
        "norad_id": 66537,
        "name": "STARLINK-35582",
        "group": "last-30-days",
        "lat": 1.2329171068017881,
        "lon": -137.57852514351657,
        "alt_km": 414.1467761420936,
        "timestamp": "2025-12-14T11:29:48.797567+00:00",
        "meta_object_name": "STARLINK-35582",
        "meta_object_id": "2025-265X",
        "meta_epoch": "2025-12-13T11:32:42.275904",
        "meta_mean_motion": 15.50582536,
        "meta_eccentricity": 0.00018086,
        "meta_inclination": 43.0007,
        "meta_ra_of_asc_node": 49.5849,
        "meta_arg_of_pericenter": 276.8829,
        "meta_mean_anomaly": 83.1826,
        "meta_ephemeris_type": 0,
        "meta_classification_type": "U",
        "meta_norad_cat_id": 66537,
        "meta_element_set_no": 999,
        "meta_rev_at_epoch": 387,
        "meta_bstar": 0.0023354292,
        "meta_mean_motion_dot": 0.00139147,
        "meta_mean_motion_ddot": 0,
        "tle_line1": "1 66537U 25265X   25347.48104486  .00139147  00000+0  23354-2 0  9996",
        "tle_line2": "2 66537  43.0007  49.5849 0001808 276.8829  83.1826 15.50582536  3877"
      },
      "geometry": {
        "type": "Point",
        "coordinates": [
          -137.57852514351657,
          1.2329171068017881
        ]
      }
    },
    {
      "type": "Feature",
      "properties": {
        "norad_id": 66538,
        "name": "STARLINK-35577",
        "group": "last-30-days",
        "lat": 0.09238894593133196,
        "lon": -136.35900253261678,
        "alt_km": 414.60388431762294,
        "timestamp": "2025-12-14T11:29:48.797580+00:00",
        "meta_object_name": "STARLINK-35577",
        "meta_object_id": "2025-265Y",
        "meta_epoch": "2025-12-13T13:04:58.713600",
        "meta_mean_motion": 15.50582443,
        "meta_eccentricity": 0.00015653,
        "meta_inclination": 43.0005,
        "meta_ra_of_asc_node": 49.2048,
        "meta_arg_of_pericenter": 281.3101,
        "meta_mean_anomaly": 78.7583,
        "meta_ephemeris_type": 0,
        "meta_classification_type": "U",
        "meta_norad_cat_id": 66538,
        "meta_element_set_no": 999,
        "meta_rev_at_epoch": 388,
        "meta_bstar": 0.0015469304,
        "meta_mean_motion_dot": 0.00091488,
        "meta_mean_motion_ddot": 0,
        "tle_line1": "1 66538U 25265Y   25347.54512400  .00091488  00000+0  15469-2 0  9996",
        "tle_line2": "2 66538  43.0005  49.2048 0001565 281.3101  78.7583 15.50582443  3886"
      },
      "geometry": {
        "type": "Point",
        "coordinates": [
          -136.35900253261678,
          0.09238894593133196
        ]
      }
    }
  ]
}